satname,norad_id,inclination_deg,eccentricity,mean_motion_rev_per_day,perigee_km,apogee_km,l1,l2
STARLINK-1212,45223,53.0541,0.0001318,15.06401793,546.2933024413096,548.118822872626,1 45223U 20012AX  25262.57239373  .00001015  00000+0  87044-4 0  9990,2 45223  53.0541  55.4469 0001318  86.5345 273.5795 15.06401793309605
STARLINK-1215,45225,53.0557,8.73e-05,15.06399337,546.6090068320309,547.8181730450342,1 45225U 20012AZ  25262.59442913  .00000659  00000+0  63087-4 0  9994,2 45225  53.0557  54.6924 0000873  98.0866 262.0222 15.06399337309565
STARLINK-1217,45226,53.0469,0.0001504,15.87103889,309.4012850472691,311.4131991552931,1 45226U 20012BA  25262.58339120  .00294378  00000+0  10748-2 0  9996,2 45226  53.0469   6.6643 0001504 227.6295 194.9239 15.87103889  5996
STARLINK-1221,45227,53.0705,0.0003756,15.35004531,458.33829145453547,463.47578133467505,1 45227U 20012BB  25262.54337115  .00013482  00000+0  40166-3 0  9998,2 45227  53.0705 356.3993 0003756 176.3923 183.7106 15.35004531310368
STARLINK-1222,45228,53.0556,0.0001304,15.06396442,546.3193958433576,548.1255295912333,1 45228U 20012BC  25262.16317792  .00000664  00000+0  63446-4 0  9991,2 45228  53.0556  56.6286 0001304  89.9333 270.1805 15.06396442309435
STARLINK-1226,45229,53.0535,0.0003839,15.06391307,544.5795493197693,549.8968523989897,1 45229U 20012BD  25262.59073563 -.00005540  00000+0 -35329-3 0  9992,2 45229  53.0535  54.7079 0003839 142.8671 217.2584 15.06391307309500
STARLINK-1227,45230,53.0542,0.0001203,15.06408469,546.352485485646,548.0187181036381,1 45230U 20012BE  25262.58704445 -.00006831  00000+0 -44004-3 0  9997,2 45230  53.0542  54.7208 0001203  89.3996 270.7131 15.06408469309625
STARLINK-1238,45233,53.0385,0.0002031,15.96696602,282.23817055783275,284.9441645394918,1 45233U 20012BH  25262.58339120  .00406782  78537-4  93906-3 0  9991,2 45233  53.0385  22.8299 0002031 341.0730 255.5803 15.96696602  6115
STARLINK-1246,45235,53.0542,0.0001254,15.06400083,546.3428648779773,548.0797422325095,1 45235U 20012BK  25262.53546297  .00001857  00000+0  14353-3 0  9991,2 45235  53.0542  94.9588 0001254  89.9261 270.1872 15.06400083309062
STARLINK-1247,45236,53.0427,0.0001577,15.95147582,286.8519606778118,288.954429755383,1 45236U 20012BL  25262.58339120  .00337596  56096-4  84921-3 0  9993,2 45236  53.0427   2.7950 0001577 341.2462 251.0859 15.95147582  5998
STARLINK-1270,45237,53.0558,0.0001349,15.064027,546.2690544353536,548.1375112436635,1 45237U 20012BM  25262.60548310  .00001012  00000+0  86817-4 0  9997,2 45237  53.0558  54.6434 0001349  98.3577 261.7565 15.06402700309617
STARLINK-1279,45360,53.0563,0.0001596,15.0638835,546.1419724119914,548.3525550689765,1 45360U 20019A   25262.49768695  .00001874  00000+0  14469-3 0  9997,2 45360  53.0563 185.1275 0001596  88.5125 271.6047 15.06388350304330
STARLINK-1301,45361,53.0538,0.0001557,15.06401022,546.1301493744686,548.2867019400192,1 45361U 20019B   25262.55203994  .00001364  00000+0  11042-3 0  9999,2 45361  53.0538 194.8853 0001557  93.2263 266.8904 15.06401022304212
STARLINK-1306,45362,53.0509,0.0009106,15.55751938,393.7955766742298,406.1398609881653,1 45362U 20019C   25262.58339120  .00137141  00000+0  19249-2 0  9993,2 45362  53.0509 198.7507 0009106  77.5948  69.2631 15.55751938  5974
STARLINK-1262,45366,53.0535,0.0001603,15.06392661,546.1239140281104,548.3441879870634,1 45366U 20019G   25262.58337506  .00001365  00000+0  11057-3 0  9991,2 45366  53.0535 214.7428 0001603  91.1509 268.9664 15.06392661303949
STARLINK-1273,45367,53.0527,5.47e-05,15.06408235,546.8075037787657,547.5651341498597,1 45367U 20019H   25262.60548067 -.00001449  00000+0 -78427-4 0  9991,2 45367  53.0527 214.6466 0000547  94.8609 265.2443 15.06408235303949
STARLINK-1276,45368,53.0547,0.0001344,15.0639195,546.3054599766056,548.1670003008667,1 45368U 20019J   25262.57600964  .00000490  00000+0  51779-4 0  9997,2 45368  53.0547 214.7804 0001344  90.6660 269.4483 15.06391950303941
STARLINK-1277,45369,53.0538,0.0001412,15.06397641,546.2409277056968,548.1966481802119,1 45369U 20019K   25262.56871037  .00001227  00000+0  10125-3 0  9996,2 45369  53.0538 215.4412 0001412  98.6829 261.4320 15.06397641303930
STARLINK-1281,45370,53.052,0.0002223,15.06422713,545.6024572293336,548.6814362490531,1 45370U 20019L   25262.56492044  .00004434  00000+0  31621-3 0  9992,2 45370  53.0520 214.8283 0002223  82.9322 277.1920 15.06422713303947
STARLINK-1300,45374,53.055,0.0001533,15.06396612,546.160284164017,548.2835992155387,1 45374U 20019Q   25262.58706784  .00000028  00000+0  20755-4 0  9999,2 45374  53.0550 214.7275 0001533  99.4019 260.7144 15.06396612303947
STARLINK-1302,45375,53.0548,0.0001347,15.0639617,546.2904503296068,548.1561423934472,1 45375U 20019R   25262.27007109  .00000039  00000+0  21538-4 0  9993,2 45375  53.0548 216.1537 0001347  77.8705 282.2435 15.06396170303892
STARLINK-1304,45376,53.053,0.0001799,15.06387529,546.0039029390891,548.4956571025405,1 45376U 20019S   25262.02312728 -.00000716  00000+0 -29206-4 0  9997,2 45376  53.0530 217.2618 0001799  90.1181 270.0014 15.06387529303855
STARLINK-1305,45377,53.0523,0.0001449,15.06390164,546.2382166514526,548.2451913998793,1 45377U 20019T   25262.57967866 -.00007444  00000+0 -48147-3 0  9996,2 45377  53.0523 214.7594 0001449  89.2201 270.8954 15.06390164303947
STARLINK-1319,45379,53.0532,0.0001622,15.06399059,546.091149965363,548.3377339731369,1 45379U 20019V   25262.57231785  .00001653  00000+0  12986-3 0  9998,2 45379  53.0532 214.7968 0001622  98.7376 261.3797 15.06399059303947
STARLINK-1258,45381,53.043,0.0005223,16.00024582,270.87596914377536,277.8251576525008,1 45381U 20019X   25262.58339120  .00474891  10863-3  90759-3 0  9998,2 45381  53.0430 140.5612 0005223 154.9133 131.6747 16.00024582  6121
STARLINK-1266,45383,53.0539,0.000169,15.06402117,546.0346868360102,548.3754524555507,1 45383U 20019Z   25262.50781666  .00002247  00000+0  16971-3 0  9992,2 45383  53.0539 195.0827 0001690  78.7254 281.3925 15.06402117304207
STARLINK-1267,45384,53.0535,0.0001122,15.06395066,546.4496541740327,548.0037057838208,1 45384U 20019AA  25262.22776592  .00002173  00000+0  16472-3 0  9998,2 45384  53.0535 196.9969 0001122 102.7942 257.3172 15.06395066304158
STARLINK-1272,45386,53.0541,0.0001328,15.06397392,546.2998637442024,548.1392384441742,1 45386U 20019AC  25262.23505727  .00000795  00000+0  72280-4 0  9999,2 45386  53.0541 196.3101 0001328  81.0271 279.0868 15.06397392304169
STARLINK-1274,45387,53.0363,0.0008112,15.24560731,486.53165061982236,497.67793090115174,1 45387U 20019AD  25262.03886534  .00054227  00000+0  21692-2 0  9994,2 45387  53.0363 188.5796 0008112  62.8674 297.3149 15.24560731304251
STARLINK-1280,45388,53.0541,0.0001293,15.06393571,546.335811851136,548.126712083681,1 45388U 20019AE  25262.02679675  .00001043  00000+0  88885-4 0  9997,2 45388  53.0541 217.2479 0001293  70.9843 289.1286 15.06393571303840
STARLINK-1283,45389,53.0541,0.0001468,15.06389129,546.2282301285104,548.2615222473596,1 45389U 20019AF  25262.53730996  .00000954  00000+0  82986-4 0  9994,2 45389  53.0541 194.9537 0001468  86.2113 273.9044 15.06389129304210
STARLINK-1284,45390,53.0545,0.0001236,15.06399023,546.3585788523169,548.0705257560467,1 45390U 20019AG  25262.51149808  .00000881  00000+0  78062-4 0  9999,2 45390  53.0545 195.0686 0001236  92.6400 267.4731 15.06399023304200
STARLINK-1292,45394,53.0506,0.0005467,15.7206577,349.31394890140746,356.6737673816988,1 45394U 20019AL  25262.58339120  .00232552  00000+0  16945-2 0  9990,2 45394  53.0506 167.7277 0005467 135.4982 239.5509 15.72065770  5960
STARLINK-1297,45395,53.0555,0.0001526,15.06388358,546.1904255864165,548.3040528562269,1 45395U 20019AM  25262.54836422  .00001304  00000+0  10649-3 0  9999,2 45395  53.0555 194.9033 0001526  94.9989 265.1174 15.06388358303393
STARLINK-1307,45397,53.0532,0.0001519,15.0639706,546.1686068148201,548.2725304441701,1 45397U 20019AP  25262.54099566  .00002535  00000+0  18904-3 0  9990,2 45397  53.0532 194.9350 0001519  89.3560 270.7603 15.06397060304038
STARLINK-1312,45398,53.05,0.0011094,15.69913835,351.66917678237587,366.6178547908039,1 45398U 20019AQ  25262.58339120  .00239169  00000+0  19010-2 0  9991,2 45398  53.0500 167.1266 0011094  80.0483 167.7044 15.69913835  5959
STARLINK-1255,45399,53.0535,0.0002111,15.06410659,545.7169556467397,548.6408240154269,1 45399U 20019AR  25262.50873596  .00004430  00000+0  31606-3 0  9991,2 45399  53.0535 185.0818 0002111  88.0389 272.0842 15.06410659304150
STARLINK-1259,45403,53.0482,0.0009857,15.82160582,317.72517827032516,330.93842526613025,1 45403U 20019AV  25262.58339120  .00242716  00000+0  11264-2 0  9993,2 45403  53.0482 149.2939 0009857  82.0574 121.5780 15.82160582  6033
STARLINK-1260,45404,53.0532,0.00014,15.06396749,546.2519716099132,548.1910719960188,1 45404U 20019AW  25262.01113223  .00002534  00000+0  18896-3 0  9997,2 45404  53.0532 187.3158 0001400  89.0113 271.1036 15.06396749303980
STARLINK-1263,45405,53.0546,0.000131,15.063996,546.3055630592507,548.1200047026286,1 45405U 20019AX  25262.52714824  .00000352  00000+0  42522-4 0  9998,2 45405  53.0546 184.9962 0001310 104.9345 255.1789 15.06399600304062
STARLINK-1265,45406,53.0534,0.0001616,15.06384895,546.1387091663601,548.3769967828412,1 45406U 20019AY  25262.00377510  .00000716  00000+0  66987-4 0  9994,2 45406  53.0534 187.3489 0001616  91.8193 268.2981 15.06384895303984
STARLINK-1278,45408,53.0537,0.0001751,15.06393997,546.0173245757314,548.4425880838389,1 45408U 20019BA  25262.56126431 -.00000122  00000+0  10692-4 0  9995,2 45408  53.0537 214.8472 0001751  91.8442 268.2747 15.06393997303651
STARLINK-1296,45412,53.0541,0.0001658,15.06397396,546.0713147205906,548.3677629488675,1 45412U 20019BE  25262.00744778  .00003432  00000+0  24920-3 0  9993,2 45412  53.0541 187.3324 0001658  93.9142 266.2036 15.06397396303989
